0 FENGYUN 1C DEB
1 37587U 99025EKF 13282.71880870  .00023987  00000-0  38990-2 0   463
2 37587 097.8323 092.8297 0171183 114.3534 246.1977 14.61735477291578
0 FENGYUN 1C DEB
1 37587U 99025EKF 13294.69598605  .00027508  00000-0  44231-2 0   474
2 37587 097.8363 104.1995 0168018 076.2451 290.6090 14.62481266293321
0 FENGYUN 1C DEB
1 37587U 99025EKF 13295.72130546  .00026967  00000-0  43331-2 0   484
2 37587 097.8388 105.1731 0167849 073.1609 288.7725 14.62532199293470
